start=new Date('2021-11-06T00:00:00.000Z').valueOf();
sats=[{"TLE_LINE2":"2 47364  53.0555 334.6294 0002203  65.6323 294.4908 15.34626492 44198","OBJECT_TYPE":"PAYLOAD","ECCENTRICITY":"0.00022030","EPOCH":"2021-11-05T22:04:40.218816","MEAN_MOTION_DDOT":"0.0000000000000","REF_FRAME":"TEME","MEAN_MOTION_DOT":"0.00661268","EPHEMERIS_TYPE":"0","ELEMENT_SET_NO":"999","NORAD_CAT_ID":"47364","REV_AT_EPOCH":"4419","INCLINATION":"53.0555","MEAN_ELEMENT_THEORY":"SGP4","PERIOD":"93.834","ARG_OF_PERICENTER":"65.6323","MEAN_MOTION":"15.34626492","RA_OF_ASC_NODE":"334.6294","GP_ID":"189045585","LAUNCH_DATE":"2021-01-20","CENTER_NAME":"EARTH","OBJECT_NAME":"STARLINK-2079","DECAY_DATE":null,"TLE_LINE1":"1 47364U 21005R   21309.91990994  .00661268  00000-0  18031-1 0  9990","APOAPSIS":"463.539","SEMIMAJOR_AXIS":"6840.167","CLASSIFICATION_TYPE":"U","BSTAR":"0.01803100000000","RCS_SIZE":"LARGE","FILE":"3204412","MEAN_ANOMALY":"294.4908","SITE":"AFETR","COUNTRY_CODE":"US","TIME_SYSTEM":"UTC","OBJECT_ID":"2021-005R","PERIAPSIS":"460.525"},{"ARG_OF_PERICENTER":"293.9678","PERIOD":"91.524","RA_OF_ASC_NODE":"229.8310","MEAN_MOTION":"15.73360228","MEAN_ELEMENT_THEORY":"SGP4","INCLINATION":"53.0495","NORAD_CAT_ID":"47365","REV_AT_EPOCH":"4559","ELEMENT_SET_NO":"999","REF_FRAME":"TEME","MEAN_MOTION_DDOT":"0.0000000000000","EPHEMERIS_TYPE":"0","MEAN_MOTION_DOT":"0.00085531","TLE_LINE2":"2 47365  53.0495 229.8310 0006152 293.9678  66.0695 15.73360228 45598","OBJECT_TYPE":"PAYLOAD","EPOCH":"2021-11-05T02:04:15.145824","ECCENTRICITY":"0.00061520","TIME_SYSTEM":"UTC","OBJECT_ID":"2021-005S","PERIAPSIS":"345.165","SITE":"AFETR","COUNTRY_CODE":"US","MEAN_ANOMALY":"66.0695","RCS_SIZE":"LARGE","FILE":"3203969","CLASSIFICATION_TYPE":"U","BSTAR":"0.00060285000000","SEMIMAJOR_AXIS":"6727.438","TLE_LINE1":"1 47365U 21005S   21309.08628641  .00085531  00000-0  60285-3 0  9999","APOAPSIS":"353.442","DECAY_DATE":null,"CENTER_NAME":"EARTH","OBJECT_NAME":"STARLINK-2080","GP_ID":"189013256","LAUNCH_DATE":"2021-01-20"},{"ELEMENT_SET_NO":"999","EPHEMERIS_TYPE":"0","MEAN_MOTION_DOT":"0.00008289","REF_FRAME":"TEME","MEAN_MOTION_DDOT":"0.0000000000000","EPOCH":"2021-11-05T18:26:02.008320","ECCENTRICITY":"0.00013010","OBJECT_TYPE":"PAYLOAD","TLE_LINE2":"2 47366  53.0559 336.6070 0001301  69.8132 290.2997 15.06428129 44154","RA_OF_ASC_NODE":"336.6070","MEAN_MOTION":"15.06428129","PERIOD":"95.590","ARG_OF_PERICENTER":"69.8132","MEAN_ELEMENT_THEORY":"SGP4","INCLINATION":"53.0559","REV_AT_EPOCH":"4415","NORAD_CAT_ID":"47366","SEMIMAJOR_AXIS":"6925.262","TLE_LINE1":"1 47366U 21005T   21309.76807880  .00008289  00000-0  57430-3 0  9992","APOAPSIS":"548.028","DECAY_DATE":null,"OBJECT_NAME":"STARLINK-2081","CENTER_NAME":"EARTH","LAUNCH_DATE":"2021-01-20","GP_ID":"189046572","PERIAPSIS":"546.226","OBJECT_ID":"2021-005T","TIME_SYSTEM":"UTC","COUNTRY_CODE":"US","SITE":"AFETR","MEAN_ANOMALY":"290.2997","RCS_SIZE":"LARGE","FILE":"3204412","BSTAR":"0.00057430000000","CLASSIFICATION_TYPE":"U"},{"REF_FRAME":"TEME","MEAN_MOTION_DDOT":"0.0000000000000","EPHEMERIS_TYPE":"0","MEAN_MOTION_DOT":"0.00007589","ELEMENT_SET_NO":"999","OBJECT_TYPE":"PAYLOAD","TLE_LINE2":"2 47367  53.0542 336.5048 0001336  81.4118 278.7022 15.06434669 44160","EPOCH":"2021-11-05T19:03:11.282976","ECCENTRICITY":"0.00013360","PERIOD":"95.590","ARG_OF_PERICENTER":"81.4118","MEAN_MOTION":"15.06434669","RA_OF_ASC_NODE":"336.5048","NORAD_CAT_ID":"47367","REV_AT_EPOCH":"4416","MEAN_ELEMENT_THEORY":"SGP4","INCLINATION":"53.0542","DECAY_DATE":null,"SEMIMAJOR_AXIS":"6925.242","TLE_LINE1":"1 47367U 21005U   21309.79388059  .00007589  00000-0  52736-3 0  9994","APOAPSIS":"548.033","GP_ID":"189045843","LAUNCH_DATE":"2021-01-20","CENTER_NAME":"EARTH","OBJECT_NAME":"STARLINK-2082","SITE":"AFETR","COUNTRY_CODE":"US","OBJECT_ID":"2021-005U","TIME_SYSTEM":"UTC","PERIAPSIS":"546.182","CLASSIFICATION_TYPE":"U","BSTAR":"0.00052736000000","MEAN_ANOMALY":"278.7022","RCS_SIZE":"LARGE","FILE":"3204412"},{"ELEMENT_SET_NO":"999","MEAN_MOTION_DOT":"0.00002043","EPHEMERIS_TYPE":"0","REF_FRAME":"TEME","MEAN_MOTION_DDOT":"0.0000000000000","ECCENTRICITY":"0.00014850","EPOCH":"2021-11-05T18:52:34.164192","TLE_LINE2":"2 47368  53.0540 336.5288 0001485  71.6617 288.4533 15.06408955 44169","OBJECT_TYPE":"PAYLOAD","MEAN_MOTION":"15.06408955","RA_OF_ASC_NODE":"336.5288","PERIOD":"95.592","ARG_OF_PERICENTER":"71.6617","INCLINATION":"53.0540","MEAN_ELEMENT_THEORY":"SGP4","REV_AT_EPOCH":"4416","NORAD_CAT_ID":"47368","TLE_LINE1":"1 47368U 21005V   21309.78650653  .00002043  00000-0  15597-3 0  9990","APOAPSIS":"548.215","SEMIMAJOR_AXIS":"6925.321","DECAY_DATE":null,"OBJECT_NAME":"STARLINK-2084","CENTER_NAME":"EARTH","LAUNCH_DATE":"2021-01-20","GP_ID":"189046085","PERIAPSIS":"546.158","OBJECT_ID":"2021-005V","TIME_SYSTEM":"UTC","SITE":"AFETR","COUNTRY_CODE":"US","RCS_SIZE":"LARGE","FILE":"3204412","MEAN_ANOMALY":"288.4533","BSTAR":"0.00015597000000","CLASSIFICATION_TYPE":"U"},{"DECAY_DATE":null,"SEMIMAJOR_AXIS":"6925.259","APOAPSIS":"548.115","TLE_LINE1":"1 47369U 21005W   21309.72569041  .00005428  00000-0  38272-3 0  9990","GP_ID":"189046845","LAUNCH_DATE":"2021-01-20","CENTER_NAME":"EARTH","OBJECT_NAME":"STARLINK-2085","SITE":"AFETR","COUNTRY_CODE":"US","TIME_SYSTEM":"UTC","OBJECT_ID":"2021-005W","PERIAPSIS":"546.133","CLASSIFICATION_TYPE":"U","BSTAR":"0.00038272000000","MEAN_ANOMALY":"289.0453","RCS_SIZE":"LARGE","FILE":"3204412","MEAN_MOTION_DDOT":"0.0000000000000","REF_FRAME":"TEME","EPHEMERIS_TYPE":"0","MEAN_MOTION_DOT":"0.00005428","ELEMENT_SET_NO":"999","TLE_LINE2":"2 47369  53.0543 316.8061 0001431  71.0691 289.0453 15.06429381 44434","OBJECT_TYPE":"PAYLOAD","EPOCH":"2021-11-05T17:24:59.651424","ECCENTRICITY":"0.00014310","ARG_OF_PERICENTER":"71.0691","PERIOD":"95.590","RA_OF_ASC_NODE":"316.8061","MEAN_MOTION":"15.06429381","NORAD_CAT_ID":"47369","REV_AT_EPOCH":"4443","MEAN_ELEMENT_THEORY":"SGP4","INCLINATION":"53.0543"},{"PERIOD":"95.591","ARG_OF_PERICENTER":"69.0778","MEAN_MOTION":"15.06425708","RA_OF_ASC_NODE":"296.9711","NORAD_CAT_ID":"47370","REV_AT_EPOCH":"4471","MEAN_ELEMENT_THEORY":"SGP4","INCLINATION":"53.0595","REF_FRAME":"TEME","MEAN_MOTION_DDOT":"0.0000000000000","EPHEMERIS_TYPE":"0","MEAN_MOTION_DOT":"0.00007963","ELEMENT_SET_NO":"999","OBJECT_TYPE":"PAYLOAD","TLE_LINE2":"2 47370  53.0595 296.9711 0001558  69.0778 291.0377 15.06425708 44714","EPOCH":"2021-11-05T16:23:57.859584","ECCENTRICITY":"0.00015580","SITE":"AFETR","COUNTRY_CODE":"US","OBJECT_ID":"2021-005X","TIME_SYSTEM":"UTC","PERIAPSIS":"546.056","CLASSIFICATION_TYPE":"U","BSTAR":"0.00055251000000","MEAN_ANOMALY":"291.0377","RCS_SIZE":"LARGE","FILE":"3204412","DECAY_DATE":null,"SEMIMAJOR_AXIS":"6925.270","APOAPSIS":"548.214","TLE_LINE1":"1 47370U 21005X   21309.68330856  .00007963  00000-0  55251-3 0  9999","GP_ID":"189047072","LAUNCH_DATE":"2021-01-20","CENTER_NAME":"EARTH","OBJECT_NAME":"STARLINK-2086"},{"PERIOD":"95.590","ARG_OF_PERICENTER":"76.1566","MEAN_MOTION":"15.06430983","RA_OF_ASC_NODE":"336.4601","NORAD_CAT_ID":"47371","REV_AT_EPOCH":"4416","INCLINATION":"53.0537","MEAN_ELEMENT_THEORY":"SGP4","REF_FRAME":"TEME","MEAN_MOTION_DDOT":"0.0000000000000","MEAN_MOTION_DOT":"0.00006787","EPHEMERIS_TYPE":"0","ELEMENT_SET_NO":"999","OBJECT_TYPE":"PAYLOAD","TLE_LINE2":"2 47371  53.0537 336.4601 0001286  76.1566 283.9566 15.06430983 44161","ECCENTRICITY":"0.00012860","EPOCH":"2021-11-05T19:13:48.030240","SITE":"AFETR","COUNTRY_CODE":"US","OBJECT_ID":"2021-005Y","TIME_SYSTEM":"UTC","PERIAPSIS":"546.228","CLASSIFICATION_TYPE":"U","BSTAR":"0.00047367000000","FILE":"3204412","RCS_SIZE":"LARGE","MEAN_ANOMALY":"283.9566","DECAY_DATE":null,"TLE_LINE1":"1 47371U 21005Y   21309.80125035  .00006787  00000-0  47367-3 0  9997","APOAPSIS":"548.009","SEMIMAJOR_AXIS":"6925.254","GP_ID":"189045344","LAUNCH_DATE":"2021-01-20","CENTER_NAME":"EARTH","OBJECT_NAME":"STARLINK-2088"},{"GP_ID":"189045586","LAUNCH_DATE":"2021-01-20","CENTER_NAME":"EARTH","OBJECT_NAME":"STARLINK-2089","DECAY_DATE":null,"SEMIMAJOR_AXIS":"6925.364","APOAPSIS":"548.258","TLE_LINE1":"1 47372U 21005Z   21309.76576989  .00000174  00000-0  30565-4 0  9998","CLASSIFICATION_TYPE":"U","BSTAR":"0.00003056500000","MEAN_ANOMALY":"292.7710","RCS_SIZE":"LARGE","FILE":"3204412","COUNTRY_CODE":"US","SITE":"AFETR","TIME_SYSTEM":"UTC","OBJECT_ID":"2021-005Z","PERIAPSIS":"546.201","TLE_LINE2":"2 47372  53.0544 331.6069 0001485  67.3436 292.7710 15.06394832 44222","OBJECT_TYPE":"PAYLOAD","EPOCH":"2021-11-05T18:22:42.518496","ECCENTRICITY":"0.00014850","REF_FRAME":"TEME","MEAN_MOTION_DDOT":"0.0000000000000","MEAN_MOTION_DOT":"0.00000174","EPHEMERIS_TYPE":"0","ELEMENT_SET_NO":"999","NORAD_CAT_ID":"47372","REV_AT_EPOCH":"4422","MEAN_ELEMENT_THEORY":"SGP4","INCLINATION":"53.0544","ARG_OF_PERICENTER":"67.3436","PERIOD":"95.592","MEAN_MOTION":"15.06394832","RA_OF_ASC_NODE":"331.6069"},{"TLE_LINE1":"1 47373U 21005AA  21309.79757014  .00007811  00000-0  54225-3 0  9995","APOAPSIS":"548.064","SEMIMAJOR_AXIS":"6925.254","DECAY_DATE":null,"CENTER_NAME":"EARTH","OBJECT_NAME":"STARLINK-2092","GP_ID":"189046346","LAUNCH_DATE":"2021-01-20","TIME_SYSTEM":"UTC","OBJECT_ID":"2021-005AA","PERIAPSIS":"546.174","SITE":"AFETR","COUNTRY_CODE":"US","RCS_SIZE":"LARGE","FILE":"3204412","MEAN_ANOMALY":"282.3682","CLASSIFICATION_TYPE":"U","BSTAR":"0.00054225000000","ELEMENT_SET_NO":"999","MEAN_MOTION_DDOT":"0.0000000000000","REF_FRAME":"TEME","MEAN_MOTION_DOT":"0.00007811","EPHEMERIS_TYPE":"0","OBJECT_TYPE":"PAYLOAD","TLE_LINE2":"2 47373  53.0533 336.4709 0001364  77.7460 282.3682 15.06430823 44160","ECCENTRICITY":"0.00013640","EPOCH":"2021-11-05T19:08:30.060096","ARG_OF_PERICENTER":"77.7460","PERIOD":"95.590","RA_OF_ASC_NODE":"336.4709","MEAN_MOTION":"15.06430823","INCLINATION":"53.0533","MEAN_ELEMENT_THEORY":"SGP4","NORAD_CAT_ID":"47373","REV_AT_EPOCH":"4416"}];
